satname,norad_id,inclination_deg,eccentricity,mean_motion_rev_per_day,perigee_km,apogee_km,l1,l2
STARLINK-1304,45376,53.0552,0.0001501,15.06410115,546.1410669282523,548.2200472588911,1 45376U 20019S   25308.86402108  .00000130  00000+0  27634-4 0  9993,2 45376  53.0552   6.9796 0001501  83.7862 276.3298 15.06410115310910
STARLINK-1305,45377,53.0541,0.0001871,15.31649325,469.60960577876267,472.1725120784131,1 45377U 20019T   25308.53847902  .00044587  00000+0  14421-2 0  9995,2 45377  53.0541   5.4313 0001871  58.6535 301.4648 15.31649325310910
STARLINK-1319,45379,53.0561,0.0001181,15.30395243,473.8228589527689,475.4414830309561,1 45379U 20019V   25309.33336806  .01065859  00000+0  32744-1 0  9995,2 45379  53.0561   3.9027 0001181  84.7718 344.6855 15.30395243  5800
STARLINK-1266,45383,53.0538,0.0001541,15.06389311,546.1771171163336,548.311519638658,1 45383U 20019Z   25309.28240055  .00002128  00000+0  16173-3 0  9993,2 45383  53.0538 345.1051 0001541  65.9663 294.1487 15.06389311311258
STARLINK-1267,45384,53.0557,0.0001782,15.06398251,545.982820308307,548.4510164448157,1 45384U 20019AA  25309.26771748 -.00003638  00000+0 -22545-3 0  9999,2 45384  53.0557 345.8298 0001782 107.9006 252.2177 15.06398251311248
STARLINK-1272,45386,53.053,0.0002727,15.34217858,461.37901339578457,465.1103029521528,1 45386U 20019AC  25309.25131542  .00076610  00000+0  22682-2 0  9991,2 45386  53.0530 342.1899 0002727  32.2156 327.9011 15.34217858311290
STARLINK-1274,45387,53.035,0.0003116,15.29331933,475.6718744040736,479.9444994445648,1 45387U 20019AD  25309.22956648  .00017717  00000+0  62520-3 0  9990,2 45387  53.0350 329.8312 0003116 288.1815  71.8845 15.29331933311464
STARLINK-1280,45388,53.0544,0.0002765,15.39721644,445.044634984346,448.8188980122195,1 45388U 20019AE  25308.85414959  .00060389  00000+0  15025-2 0  9993,2 45388  53.0544   3.3771 0002765  26.9812 333.1335 15.39721644310951
STARLINK-1283,45389,53.054,0.0004183,15.3069068,470.8842342820635,476.6165232631438,1 45389U 20019AF  25309.23235526  .00068804  00000+0  22784-2 0  9998,2 45389  53.0540 340.9876 0004183  25.3935 334.7270 15.30690680311311
STARLINK-1284,45390,53.0551,0.0001802,15.06397735,545.9705507846829,548.4664489068273,1 45390U 20019AG  25309.28606711 -.00003146  00000+0 -19240-3 0  9997,2 45390  53.0551 345.0917 0001802  91.0799 269.0396 15.06397735311250
STARLINK-1292,45394,53.0416,0.0007734,15.99343228,271.09333438332214,281.38632446307383,1 45394U 20019AL  25309.33336806  .00526509  13103-3  10438-2 0  9994,2 45394  53.0416 291.8301 0007734  42.5434 275.0731 15.99343228  6022
STARLINK-1297,45395,53.0556,0.0001359,15.06395599,546.2838897001502,548.1662031043634,1 45395U 20019AM  25309.25658426 -.00000173  00000+0  72845-5 0  9997,2 45395  53.0556 345.2218 0001359  89.7935 270.3210 15.06395599310434
STARLINK-1307,45397,53.0556,0.0001805,15.06383064,546.0134300414566,548.5134996092584,1 45397U 20019AP  25309.24920388 -.00004679  00000+0 -29555-3 0  9991,2 45397  53.0556 345.2547 0001805  78.6547 281.4645 15.06383064311073
STARLINK-1312,45398,53.0375,0.0003705,16.08925925,247.33575328200004,252.24704822695912,1 45398U 20019AQ  25309.51085916  .01011927  59954-3  11306-2 0  9994,2 45398  53.0375 289.8236 0003705  69.8837 290.2594 16.08925925311809
STARLINK-1255,45399,53.0484,0.0002611,15.30706681,471.9136132822787,475.4916439363378,1 45399U 20019AR  25309.24088459  .00062007  00000+0  20556-2 0  9995,2 45399  53.0484 332.0360 0002611  44.3344 315.7864 15.30706681311247
STARLINK-1260,45404,53.0547,0.0001433,15.06386291,546.261165898155,548.2459828367682,1 45404U 20019AW  25309.25013761 -.00002049  00000+0 -11873-3 0  9992,2 45404  53.0547 335.2477 0001433  89.5369 270.5784 15.06386291311105
STARLINK-1263,45405,53.0536,0.000143,15.06403739,546.2097752604141,548.1904216705761,1 45405U 20019AX  25309.23540105  .00007036  00000+0  49074-3 0  9991,2 45405  53.0536 335.3148 0001430  95.8313 264.2839 15.06403739311104
STARLINK-1265,45406,53.0556,0.0001391,15.06390543,546.277222416702,548.2038624490069,1 45406U 20019AY  25309.24276284 -.00001280  00000+0 -67043-4 0  9991,2 45406  53.0556 335.2845 0001391  81.9547 278.1600 15.06390543311109
STARLINK-1278,45408,53.054,0.0002465,15.33475897,463.7643037843136,467.1381927907205,1 45408U 20019BA  25308.85133307  .00046726  00000+0  14263-2 0  9993,2 45408  53.0540   4.0262 0002465  14.0481 346.0588 15.33475897310672
STARLINK-1296,45412,53.0556,0.0001731,15.0639272,546.0350884819936,548.4326518772496,1 45412U 20019BE  25309.24646038  .00002438  00000+0  18258-3 0  9993,2 45412  53.0556 335.2633 0001731  92.2600 267.8587 15.06392720311102
STARLINK-1298,45413,53.0485,0.0008205,15.53700939,400.36514204431023,411.49779840394694,1 45413U 20019BF  25309.20747205  .00131196  00000+0  19874-2 0  9996,2 45413  53.0485 310.0060 0008205 335.2262  24.8353 15.53700939311554
STARLINK-1309,45414,53.0558,0.0002598,15.06402247,545.4054674492845,549.0038749816476,1 45414U 20019BG  25309.26119792  .00003283  00000+0  23923-3 0  9993,2 45414  53.0558 335.2020 0002598  93.3804 266.7483 15.06402247311093
STARLINK-1316,45415,53.0548,0.0001418,15.06393908,546.248212030705,548.2122461768777,1 45415U 20019BH  25309.28699107 -.00001319  00000+0 -69658-4 0  9995,2 45415  53.0548 335.0833 0001418  97.8012 262.3138 15.06393908311130
STARLINK-1318,45416,53.0511,0.0005543,15.607609,381.708874316967,389.20699566189614,1 45416U 20019BJ  25308.72286842  .00049456  00000+0  58575-3 0  9999,2 45416  53.0511 303.6378 0005543  48.9168 311.2323 15.60760900311510
STARLINK-1286,45417,53.0554,0.0001224,15.35710889,457.97293135692325,459.64661592711036,1 45417U 20019BK  25309.00003472  .00101891  00000+0  28638-2 0  9996,2 45417  53.0554   3.7902 0001224  55.8640 226.3959 15.35710889  5809
STARLINK-1308,45419,53.0548,0.0001883,15.06401192,545.9038621868231,548.5119470779073,1 45419U 20019BM  25308.85665007 -.00001372  00000+0 -73240-4 0  9994,2 45419  53.0548   7.0149 0001883  87.0921 273.0283 15.06401192310657
STARLINK-1329,45531,53.0541,0.0001341,15.06396013,546.2950866657275,548.1524684262649,1 45531U 20025A   25309.28975065 -.00001019  00000+0 -49538-4 0  9993,2 45531  53.0541 305.0714 0001341  76.9399 283.1740 15.06396013306345
STARLINK-1338,45532,53.056,0.000143,15.06391347,546.2477496277743,548.2284069001571,1 45532U 20025B   25309.23447352  .00000027  00000+0  20692-4 0  9998,2 45532  53.0560 305.3185 0001430  88.0338 272.0815 15.06391347306332
STARLINK-1350,45535,53.0749,0.0001999,15.32389885,467.3155759468855,470.052935084841,1 45535U 20025E   25309.18117872  .00012321  00000+0  39950-3 0  9992,2 45535  53.0749 256.2920 0001999  69.0096 291.1118 15.32389885307045
STARLINK-1362,45538,53.0542,0.0001525,15.06416047,546.1062684761218,548.2184847859935,1 45538U 20025H   25309.26665305  .00003405  00000+0  24730-3 0  9996,2 45538  53.0542 304.8931 0001525  82.8230 277.2932 15.06416047306342
STARLINK-1368,45540,53.0541,0.0001457,15.06431847,546.1049441257674,548.1229622535266,1 45540U 20025K   25309.27130849  .00008058  00000+0  55876-3 0  9994,2 45540  53.0541 305.1541 0001457  86.3355 273.7801 15.06431847306336
STARLINK-1371,45542,53.0552,0.0001283,15.06394522,546.339822896125,548.1168716442344,1 45542U 20025M   25309.24184176  .00001072  00000+0  90888-4 0  9997,2 45542  53.0552 305.2860 0001283  91.6663 268.4473 15.06394522306337
STARLINK-1372,45543,53.0544,0.0001451,15.06393538,546.2264921588903,548.2362340578638,1 45543U 20025N   25309.27869741 -.00001719  00000+0 -96523-4 0  9991,2 45543  53.0544 305.1199 0001451  92.9480 267.1675 15.06393538305437
STARLINK-1373,45544,53.0543,0.0001289,15.06398667,546.3229654385705,548.1083213500369,1 45544U 20025P   25309.23077991 -.00000666  00000+0 -25843-4 0  9993,2 45544  53.0543 305.3355 0001289  87.2495 272.8642 15.06398667306330
STARLINK-1294,45551,53.0492,0.0008268,15.60424819,380.8361094424072,392.02199586707684,1 45551U 20025W   25309.10775095  .00068746  00000+0  81970-3 0  9990,2 45551  53.0492 237.2589 0008268  69.1005 291.0891 15.60424819307286
STARLINK-1325,45554,53.0559,0.0001982,15.62247549,379.8266945268606,382.5060823900458,1 45554U 20025Z   25309.07146955  .00115792  00000+0  12773-2 0  9994,2 45554  53.0559 230.3263 0001982 134.4147 225.7029 15.62247549307388
STARLINK-1327,45555,53.055,0.0001686,15.06397206,546.0525059484771,548.3877363697329,1 45555U 20025AA  25309.20313892 -.00000900  00000+0 -41540-4 0  9998,2 45555  53.0550 285.4596 0001686  96.6493 263.4688 15.06397206306602
STARLINK-1356,45564,53.0566,0.0001574,15.06396236,546.133042401375,548.3131457589907,1 45564U 20025AK  25309.20682538 -.00000896  00000+0 -41242-4 0  9997,2 45564  53.0566 285.4416 0001574  89.3012 270.8158 15.06396236306608
STARLINK-1357,45565,53.0627,0.0007939,15.33169812,460.9282150131039,471.7959106250473,1 45565U 20025AL  25309.21789063  .00105698  00000+0  32156-2 0  9996,2 45565  53.0627 269.5747 0007939  22.3574 337.7772 15.33169812306836
STARLINK-1361,45567,53.0553,0.0001468,15.06396041,546.2070487801047,548.2403346791962,1 45567U 20025AN  25309.22525470 -.00001718  00000+0 -96462-4 0  9991,2 45567  53.0553 285.3585 0001468  94.4369 265.6788 15.06396041306613
STARLINK-1363,45568,53.0536,0.0002846,15.41898348,438.56635045565235,442.4475225843198,1 45568U 20025AP  25309.21505736  .00120332  00000+0  27550-2 0  9996,2 45568  53.0536 281.8714 0002846  89.4457 270.6874 15.41898348306655
STARLINK-1366,45569,53.0537,0.0003213,15.40573776,442.22269814052106,446.6068699169382,1 45569U 20025AQ  25309.24473993  .00114684  00000+0  27461-2 0  9993,2 45569  53.0537 281.2237 0003213  77.6256 282.5108 15.40573776306663
STARLINK-1376,45570,53.0562,0.0001586,15.06404306,546.1000025116846,548.2967188880993,1 45570U 20025AR  25309.22157291 -.00000005  00000+0  18567-4 0  9994,2 45570  53.0562 285.3795 0001586  92.8424 267.2747 15.06404306306601
